[
  {
    "name": "Georgetown Brewing Company",
    "street": "5840 Airport Way S #201",
    "city": "Seattle",
    "state": "WA",
    "zip": "98108",
    "address": "5840 Airport Way S #201, Seattle, WA 98108"
  },
  {
    "name": "Maritime Pacific Brewing Company",
    "street": "1514 NW Leary Way",
    "city": "Seattle",
    "state": "WA",
    "zip": "98107",
    "address": "1514 NW Leary Way, Seattle, WA 98107"
  },
  {
    "name": "Big Al Brewing",
    "street": "9832 14th Ave SW",
    "city": "Seattle",
    "state": "WA",
    "zip": "98106",
    "address": "9832 14th Ave SW, Seattle, WA 98106"
  },
  {
    "name": "Fremont Brewing Company",
    "street": "3409 Woodland Park Avenue North",
    "city": "Seattle",
    "state": "WA",
    "zip": "98103",
    "address": "3409 Woodland Park Avenue North, Seattle, WA 98103"
  },
  {
    "name": "Odin Brewing",
    "street": "9130 15th Pl. S.",
    "city": "Seattle",
    "state": "WA",
    "zip": "98108",
    "address": "9130 15th Pl. S., Seattle, WA 98108"
  },
  {
    "name": "EPIC Ales",
    "street": "3201 First Ave South, #104",
    "city": "Seattle",
    "state": "WA",
    "zip": "98134",
    "address": "3201 First Ave South, #104, Seattle, WA 98134"
  },
  {
    "name": "Northwest Peaks Brewery",
    "street": "4912 17th Avenue NW Ste B",
    "city": "Seattle",
    "state": "WA",
    "zip": "98107",
    "address": "4912 17th Avenue NW Ste B, Seattle, WA 98107"
  },
  {
    "name": "Emerald City Beer Co.",
    "street": "3100 Airport Way S",
    "city": "Seattle",
    "state": "WA",
    "zip": "98134",
    "address": "3100 Airport Way S, Seattle, WA 98134"
  },
  {
    "name": "Hilliard's Brewing",
    "street": "1550 NW 49th Street",
    "city": "Seattle",
    "state": "WA",
    "zip": "98107",
    "address": "1550 NW 49th Street, Seattle, WA 98107"
  },
  {
    "name": "Schooner Exact",
    "street": "3901 1st Avenue South",
    "city": "Seattle",
    "state": "WA",
    "zip": "98134",
    "address": "3901 1st Avenue South, Seattle, WA 98134"
  },
  {
    "name": "Two Beers Brewing Co.",
    "street": "4700 Ohio Ave. S., Unit A",
    "city": "Seattle",
    "state": "WA",
    "zip": "98134",
    "address": "4700 Ohio Ave. S., Unit A, Seattle, WA 98134"
  },
  {
    "name": "Reuben's Brews",
    "street": "1406 NW 53rd Street, Suite 1A",
    "city": "Seattle",
    "state": "WA",
    "zip": "98107",
    "address": "1406 NW 53rd Street, Suite 1A, Seattle, WA 98107"
  },
  {
    "name": "Machine House Brewing",
    "street": "5840 Airport Way S",
    "city": "Seattle",
    "state": "WA",
    "zip": "98108",
    "address": "5840 Airport Way S, Seattle, WA 98108"
  },
  {
    "name": "Peddler Brewing Company",
    "street": "1514 NW Leary Way",
    "city": "Seattle",
    "state": "WA",
    "zip": "98107",
    "address": "1514 NW Leary Way, Seattle, WA 98107"
  },
  {
    "name": "Populuxe Brewing",
    "street": "826B NW 49th St",
    "city": "Seattle",
    "state": "WA",
    "zip": "98107",
    "address": "826B NW 49th St, Seattle, WA 98107"
  },
  {
    "name": "West Seattle Brewing Company",
    "street": "4415 Fauntleroy Way SW",
    "city": "Seattle",
    "state": "WA",
    "zip": "98126",
    "address": "4415 Fauntleroy Way SW, Seattle, WA 98126"
  },
  {
    "name": "Standard Brewing",
    "street": "2504 S Jackson St",
    "city": "Seattle",
    "state": "WA",
    "zip": "98144",
    "address": "2504 S Jackson St, Seattle, WA 98144"
  },
  {
    "name": "Rooftop Brewing Company",
    "street": "6 Dravus St",
    "city": "Seattle",
    "state": "WA",
    "zip": "98109",
    "address": "6 Dravus St, Seattle, WA 98109"
  },
  {
    "name": "Seapine Brewing Company",
    "street": "3828 4th Ave S Ste 2",
    "city": "Seattle",
    "state": "WA",
    "zip": "98134",
    "address": "3828 4th Ave S Ste 2, Seattle, WA 98134"
  },
  {
    "name": "Tin Dog Brewing",
    "street": "309 S Cloverdale St. Unit A2",
    "city": "Seattle",
    "state": "WA",
    "zip": "98108",
    "address": "309 S Cloverdale St. Unit A2, Seattle, WA 98108"
  },
  {
    "name": "Stoup Brewing",
    "street": "1108 NW 52nd St.",
    "city": "Seattle",
    "state": "WA",
    "zip": "98107",
    "address": "1108 NW 52nd St., Seattle, WA 98107"
  },
  {
    "name": "Burdick Brewery",
    "street": "783 S Elmgrove St",
    "city": "Seattle",
    "state": "WA",
    "zip": "98108",
    "address": "783 S Elmgrove St, Seattle, WA 98108"
  },
  {
    "name": "Lowercase Brewing",
    "street": "8103 8th Ave S.",
    "city": "Seattle",
    "state": "WA",
    "zip": "98108",
    "address": "8103 8th Ave S., Seattle, WA 98108"
  },
  {
    "name": "Spinnaker Bay Brewing",
    "street": "5718 Rainier Ave S",
    "city": "Seattle",
    "state": "WA",
    "zip": "98118",
    "address": "5718 Rainier Ave S, Seattle, WA 98118"
  },
  {
    "name": "Bluebird Microcreamery and Brewery",
    "street": "7400 Greenwood Ave N",
    "city": "Seattle",
    "state": "WA",
    "zip": "98103",
    "address": "7400 Greenwood Ave N, Seattle, WA 98103"
  },
  {
    "name": "Bad Jimmy's Brewing Co.",
    "street": "4358 B Leary Way NW",
    "city": "Seattle",
    "state": "WA",
    "zip": "98107",
    "address": "4358 B Leary Way NW, Seattle, WA 98107"
  },
  {
    "name": "Flying Lion Brewing",
    "street": "5041 Rainier Avenue S",
    "city": "Seattle",
    "state": "WA",
    "zip": "98118",
    "address": "5041 Rainier Avenue S, Seattle, WA 98118"
  },
  {
    "name": "Urban Family Brewing",
    "street": "4441 26th Ave W",
    "city": "Seattle",
    "state": "WA",
    "zip": "98199",
    "address": "4441 26th Ave W, Seattle, WA 98199"
  },
  {
    "name": "Counterbalance Brewing Co.",
    "street": "503 South Michigan Street, Suite B",
    "city": "Seattle",
    "state": "WA",
    "zip": "98108",
    "address": "503 South Michigan Street, Suite B, Seattle, WA 98108"
  },
  {
    "name": "Holy Mountain Brewing",
    "street": "1421 Elliott Ave W.",
    "city": "Seattle",
    "state": "WA",
    "zip": "98119",
    "address": "1421 Elliott Ave W., Seattle, WA 98119"
  },
  {
    "name": "Hellbent Brewing Co.",
    "street": "13035 Lake City Way NE",
    "city": "Seattle",
    "state": "WA",
    "zip": "98125",
    "address": "13035 Lake City Way NE, Seattle, WA 98125"
  },
  {
    "name": "Lantern Brewing Co.",
    "street": "938 N 95TH ST",
    "city": "Seattle",
    "state": "WA",
    "zip": "98103",
    "address": "938 N 95TH ST, Seattle, WA 98103"
  },
  {
    "name": "Ghostfish Brewing Co.",
    "street": "2942 1st Ave. S.",
    "city": "Seattle",
    "state": "WA",
    "zip": "98134",
    "address": "2942 1st Ave. S., Seattle, WA 98134"
  },
  {
    "name": "Lucky Envelope Brewing",
    "street": "907 NW 50th St",
    "city": "Seattle",
    "state": "WA",
    "zip": "98107",
    "address": "907 NW 50th St, Seattle, WA 98107"
  }
]